STARLINK-37814          
1 69482U 26131E   26179.95938514  .00776065  00000+0  35447-2 0  9996
2 69482  97.2821 200.9275 0002290 238.7246 121.3799 15.81778706  4028
STARLINK-37869          
1 69483U 26131F   26179.57899496  .00222631  00000+0  11311-2 0  9999
2 69483  97.2829 200.5269 0000548 172.5682 187.5595 15.80864365  3965
STARLINK-37873          
1 69484U 26131G   26179.91668981  .00063620  00000+0  33099-3 0  9990
2 69484  97.2830 200.8864 0001231  86.2076  38.6192 15.80781153  3894
STARLINK-37892          
1 69485U 26131H   26179.91668981  .00070276  00000+0  36525-3 0  9993
2 69485  97.2829 200.8889 0001189  79.1044  49.9974 15.80781898  3897
STARLINK-37893          
1 69486U 26131J   26179.57675678  .00174911  00000+0  89249-3 0  9999
2 69486  97.2830 200.5305 0001342 112.3155 247.8256 15.80894916  3960
STARLINK-37842          
1 69487U 26131K   26179.57600693  .00126323  00000+0  64870-3 0  9992
2 69487  97.2837 200.5308 0001171 108.9560 251.1836 15.80884526  3960
STARLINK-37449          
1 69488U 26131L   26179.57524981  .00089264  00000+0  46068-3 0  9999
2 69488  97.2811 200.5310 0001208 108.1313 252.0087 15.80878940  3966
STARLINK-37831          
1 69489U 26131M   26179.57450260  .00159546  00000+0  81580-3 0  9997
2 69489  97.2825 200.5328 0000945 122.6387 237.4973 15.80889578  3960
STARLINK-37879          
1 69490U 26131N   26179.57374520  .00308853  00000+0  15585-2 0  9991
2 69490  97.2821 200.5337 0001021 118.9400 241.1971 15.80791414  3969
STARLINK-37856          
1 69491U 26131P   26179.66670139  .00045230  00000+0  23577-3 0  9995
2 69491  97.2831 200.6144 0001328  69.8872  55.3535 15.80804916  3913
STARLINK-37568          
1 69492U 26131Q   26179.57225639  .00306914  00000+0  15423-2 0  9996
2 69492  97.2820 200.5351 0002741  76.4792 283.6781 15.80886377  3961
STARLINK-37855          
1 69493U 26131R   26179.91668981  .00072334  00000+0  37591-3 0  9993
2 69493  97.2830 200.8862 0001329  84.8403  39.1775 15.80777670  3957
STARLINK-37854          
1 69494U 26131S   26179.51627601  .00301073  00000+0  15134-2 0  9997
2 69494  97.2822 200.4588 0000691  57.2703 302.8632 15.80894634  3950
STARLINK-37789          
1 69495U 26131T   26179.56999222  .00261458  00000+0  13250-2 0  9993
2 69495  97.2834 200.5381 0000768 122.6824 237.4519 15.80818779  2707
STARLINK-37839          
1 69496U 26131U   26179.95693795  .00452083  00000+0  22229-2 0  9995
2 69496  97.2825 200.9306 0001391 125.7854 234.3544 15.80990923  2761
STARLINK-37798          
1 69497U 26131V   26179.56924742  .00358205  00000+0  17796-2 0  9996
2 69497  97.2840 200.5395 0000884  63.2315 296.9044 15.81005349  2700
STARLINK-37853          
1 69498U 26131W   26179.91668981  .00182319  00000+0  93663-3 0  9995
2 69498  97.2832 200.9179 0001285  89.2222 108.2757 15.80726597  3955
STARLINK-37849          
1 69499U 26131X   26179.91668981 -.00106260  00000+0 -56082-3 0  9993
2 69499  97.2829 200.9147 0001411  60.6607 132.6184 15.80814008  3970
STARLINK-37835          
1 69500U 26131Y   26179.56774592  .00396933  00000+0  19617-2 0  9991
2 69500  97.2841 200.5416 0000934  73.4814 286.6557 15.81020100  2700
STARLINK-37843          
1 69501U 26131Z   26179.82019128  .00213221  00000+0  10821-2 0  9994
2 69501  97.2829 200.8106 0001367 105.0853 255.0566 15.80913372  2747
2026-132A               
1 69502U 26132A   26179.76969296  .00001199  00000+0  10355-3 0  9991
2 69502  97.6886 243.2921 0013309 226.4996 133.5121 14.99065715  2516
2026-132B               
1 69503U 26132B   26179.96894283  .00000978  00000+0  85206-4 0  9999
2 69503  97.6917 243.4977 0013222 227.8820 132.1280 14.99150815  2540
BRO-22                  
1 69504U 26132C   26179.96191985  .00000844  00000+0  72973-4 0  9998
2 69504  97.6849 243.4916 0014943 240.3184 119.6552 14.99771956  2549
2026-132D               
1 69505U 26132D   26179.65975427  .00003669  00000+0  25648-3 0  9990
2 69505  97.6871 243.2675 0020491 249.0379 110.8655 15.05782284  2509
VERTECS                 
1 69506U 26132E   26179.14920077  .00002475  00000+0  19873-3 0  9993
2 69506  97.6878 242.7259 0013528 265.3518  94.6160 15.00923469  2415
2026-132F               
1 69507U 26132F   26179.93591292  .00001417  00000+0  10857-3 0  9992
2 69507  97.6848 243.5174 0015498 255.2750 104.6758 15.03403357  2532
STARLINK-37536          
1 69508U 26133A   26179.73795148  .00009153  00000+0  50109-4 0  9998
2 69508  53.1587 264.2217 0001421  55.3831 304.7325 15.80765474  2593
STARLINK-37341          
1 69509U 26133B   26179.91668981 -.02437438  00000+0 -15571-1 0  9999
2 69509  53.1590 263.2999 0001009  94.2716 216.9319 15.79104883  3856
STARLINK-36536          
1 69510U 26133C   26179.91668981  .00015515  00000+0  82043-4 0  9996
2 69510  53.1587 263.2666 0001106 101.2279 226.2069 15.80862891  3809
STARLINK-37420          
1 69511U 26133D   26179.91668981  .00000055  00000+0  38231-5 0  9991
2 69511  53.1588 263.2249 0001227  93.5834 253.4492 15.80869837  3755
